{
"type": "FeatureCollection",
"name": "dublin_bikes_stations",
"crs": { "type": "name", "properties": { "name": "urn:ogc:def:crs:OGC:1.3:CRS84" } },
"features": [
{ "type": "Feature", "properties": { "station_id": 1, "name": "CLARENDON ROW", "capacity": 31 }, "geometry": { "type": "Point", "coordinates": [ -6.262501, 53.340927 ] } },
{ "type": "Feature", "properties": { "station_id": 2, "name": "BLESSINGTON STREET", "capacity": 20 }, "geometry": { "type": "Point", "coordinates": [ -6.26814, 53.35677 ] } },
{ "type": "Feature", "properties": { "station_id": 3, "name": "BOLTON STREET", "capacity": 20 }, "geometry": { "type": "Point", "coordinates": [ -6.269859, 53.35118 ] } },
{ "type": "Feature", "properties": { "station_id": 4, "name": "GREEK STREET", "capacity": 20 }, "geometry": { "type": "Point", "coordinates": [ -6.272976, 53.346874 ] } },
{ "type": "Feature", "properties": { "station_id": 5, "name": "CHARLEMONT PLACE", "capacity": 40 }, "geometry": { "type": "Point", "coordinates": [ -6.260177, 53.33066 ] } },
{ "type": "Feature", "properties": { "station_id": 6, "name": "CHRISTCHURCH PLACE", "capacity": 20 }, "geometry": { "type": "Point", "coordinates": [ -6.27012, 53.34337 ] } },
{ "type": "Feature", "properties": { "station_id": 7, "name": "HIGH STREET", "capacity": 29 }, "geometry": { "type": "Point", "coordinates": [ -6.275071, 53.343567 ] } },
{ "type": "Feature", "properties": { "station_id": 8, "name": "CUSTOM HOUSE QUAY", "capacity": 30 }, "geometry": { "type": "Point", "coordinates": [ -6.248048, 53.347885 ] } },
{ "type": "Feature", "properties": { "station_id": 9, "name": "EXCHEQUER STREET", "capacity": 24 }, "geometry": { "type": "Point", "coordinates": [ -6.263578, 53.343033 ] } },
{ "type": "Feature", "properties": { "station_id": 10, "name": "DAME STREET", "capacity": 16 }, "geometry": { "type": "Point", "coordinates": [ -6.266802, 53.344006 ] } },
{ "type": "Feature", "properties": { "station_id": 11, "name": "EARLSFORT TERRACE", "capacity": 30 }, "geometry": { "type": "Point", "coordinates": [ -6.258503, 53.334293 ] } },
{ "type": "Feature", "properties": { "station_id": 12, "name": "ECCLES STREET", "capacity": 20 }, "geometry": { "type": "Point", "coordinates": [ -6.269779, 53.359245 ] } },
{ "type": "Feature", "properties": { "station_id": 13, "name": "FITZWILLIAM SQUARE WEST", "capacity": 30 }, "geometry": { "type": "Point", "coordinates": [ -6.252825, 53.336075 ] } },
{ "type": "Feature", "properties": { "station_id": 14, "name": "FOWNES STREET UPPER", "capacity": 30 }, "geometry": { "type": "Point", "coordinates": [ -6.263371, 53.344604 ] } },
{ "type": "Feature", "properties": { "station_id": 15, "name": "HARDWICKE STREET", "capacity": 16 }, "geometry": { "type": "Point", "coordinates": [ -6.264423, 53.355473 ] } },
{ "type": "Feature", "properties": { "station_id": 16, "name": "GEORGES QUAY", "capacity": 20 }, "geometry": { "type": "Point", "coordinates": [ -6.252192, 53.347507 ] } },
{ "type": "Feature", "properties": { "station_id": 17, "name": "GOLDEN LANE", "capacity": 20 }, "geometry": { "type": "Point", "coordinates": [ -6.267732, 53.3408 ] } },
{ "type": "Feature", "properties": { "station_id": 18, "name": "GRANTHAM STREET", "capacity": 30 }, "geometry": { "type": "Point", "coordinates": [ -6.265436, 53.33412 ] } },
{ "type": "Feature", "properties": { "station_id": 19, "name": "HERBERT PLACE", "capacity": 30 }, "geometry": { "type": "Point", "coordinates": [ -6.245575, 53.33443 ] } },
{ "type": "Feature", "properties": { "station_id": 20, "name": "JAMES STREET EAST", "capacity": 30 }, "geometry": { "type": "Point", "coordinates": [ -6.248109, 53.336597 ] } },
{ "type": "Feature", "properties": { "station_id": 21, "name": "LEINSTER STREET SOUTH", "capacity": 30 }, "geometry": { "type": "Point", "coordinates": [ -6.254485, 53.34218 ] } },
{ "type": "Feature", "properties": { "station_id": 22, "name": "TOWNSEND STREET", "capacity": 20 }, "geometry": { "type": "Point", "coordinates": [ -6.254614, 53.34592 ] } },
{ "type": "Feature", "properties": { "station_id": 23, "name": "CUSTOM HOUSE", "capacity": 30 }, "geometry": { "type": "Point", "coordinates": [ -6.254662, 53.348278 ] } },
{ "type": "Feature", "properties": { "station_id": 24, "name": "CATHAL BRUGHA STREET", "capacity": 20 }, "geometry": { "type": "Point", "coordinates": [ -6.260533, 53.35215 ] } },
{ "type": "Feature", "properties": { "station_id": 25, "name": "MERRION SQUARE EAST", "capacity": 30 }, "geometry": { "type": "Point", "coordinates": [ -6.246548, 53.339436 ] } },
{ "type": "Feature", "properties": { "station_id": 26, "name": "MERRION SQUARE WEST", "capacity": 20 }, "geometry": { "type": "Point", "coordinates": [ -6.251988, 53.339764 ] } },
{ "type": "Feature", "properties": { "station_id": 27, "name": "MOLESWORTH STREET", "capacity": 20 }, "geometry": { "type": "Point", "coordinates": [ -6.258117, 53.34129 ] } },
{ "type": "Feature", "properties": { "station_id": 28, "name": "MOUNTJOY SQUARE WEST", "capacity": 30 }, "geometry": { "type": "Point", "coordinates": [ -6.258586, 53.3563 ] } },
{ "type": "Feature", "properties": { "station_id": 29, "name": "ORMOND QUAY UPPER", "capacity": 29 }, "geometry": { "type": "Point", "coordinates": [ -6.268001, 53.346058 ] } },
{ "type": "Feature", "properties": { "station_id": 30, "name": "PARNELL SQUARE NORTH", "capacity": 20 }, "geometry": { "type": "Point", "coordinates": [ -6.265301, 53.35374 ] } },
{ "type": "Feature", "properties": { "station_id": 31, "name": "PARNELL STREET", "capacity": 20 }, "geometry": { "type": "Point", "coordinates": [ -6.265125, 53.35093 ] } },
{ "type": "Feature", "properties": { "station_id": 32, "name": "PEARSE STREET", "capacity": 30 }, "geometry": { "type": "Point", "coordinates": [ -6.2504272, 53.344303 ] } },
{ "type": "Feature", "properties": { "station_id": 33, "name": "PRINCES STREET / O'CONNELL STREET", "capacity": 23 }, "geometry": { "type": "Point", "coordinates": [ -6.260311, 53.349014 ] } },
{ "type": "Feature", "properties": { "station_id": 34, "name": "PORTOBELLO HARBOUR", "capacity": 30 }, "geometry": { "type": "Point", "coordinates": [ -6.265163, 53.33036 ] } },
{ "type": "Feature", "properties": { "station_id": 35, "name": "SMITHFIELD", "capacity": 30 }, "geometry": { "type": "Point", "coordinates": [ -6.278214, 53.34769 ] } },
{ "type": "Feature", "properties": { "station_id": 36, "name": "ST. STEPHEN'S GREEN EAST", "capacity": 40 }, "geometry": { "type": "Point", "coordinates": [ -6.256035, 53.337826 ] } },
{ "type": "Feature", "properties": { "station_id": 37, "name": "ST. STEPHEN'S GREEN SOUTH", "capacity": 30 }, "geometry": { "type": "Point", "coordinates": [ -6.26199, 53.337494 ] } },
{ "type": "Feature", "properties": { "station_id": 38, "name": "TALBOT STREET", "capacity": 40 }, "geometry": { "type": "Point", "coordinates": [ -6.25294, 53.350975 ] } },
{ "type": "Feature", "properties": { "station_id": 39, "name": "WILTON TERRACE", "capacity": 20 }, "geometry": { "type": "Point", "coordinates": [ -6.252717, 53.332382 ] } },
{ "type": "Feature", "properties": { "station_id": 40, "name": "JERVIS STREET", "capacity": 21 }, "geometry": { "type": "Point", "coordinates": [ -6.266651, 53.3483 ] } },
{ "type": "Feature", "properties": { "station_id": 41, "name": "HARCOURT TERRACE", "capacity": 20 }, "geometry": { "type": "Point", "coordinates": [ -6.257942, 53.332764 ] } },
{ "type": "Feature", "properties": { "station_id": 42, "name": "SMITHFIELD NORTH", "capacity": 30 }, "geometry": { "type": "Point", "coordinates": [ -6.2781982, 53.349564 ] } },
{ "type": "Feature", "properties": { "station_id": 43, "name": "PORTOBELLO ROAD", "capacity": 30 }, "geometry": { "type": "Point", "coordinates": [ -6.268044, 53.33009 ] } },
{ "type": "Feature", "properties": { "station_id": 44, "name": "UPPER SHERRARD STREET", "capacity": 30 }, "geometry": { "type": "Point", "coordinates": [ -6.260641, 53.358437 ] } },
{ "type": "Feature", "properties": { "station_id": 45, "name": "DEVERELL PLACE", "capacity": 30 }, "geometry": { "type": "Point", "coordinates": [ -6.255265, 53.351463 ] } },
{ "type": "Feature", "properties": { "station_id": 47, "name": "HERBERT STREET", "capacity": 40 }, "geometry": { "type": "Point", "coordinates": [ -6.24551, 53.335743 ] } },
{ "type": "Feature", "properties": { "station_id": 48, "name": "EXCISE WALK", "capacity": 40 }, "geometry": { "type": "Point", "coordinates": [ -6.244239, 53.34778 ] } },
{ "type": "Feature", "properties": { "station_id": 49, "name": "GUILD STREET", "capacity": 40 }, "geometry": { "type": "Point", "coordinates": [ -6.240928, 53.34793 ] } },
{ "type": "Feature", "properties": { "station_id": 50, "name": "GEORGES LANE", "capacity": 40 }, "geometry": { "type": "Point", "coordinates": [ -6.279696, 53.35023 ] } },
{ "type": "Feature", "properties": { "station_id": 52, "name": "YORK STREET EAST", "capacity": 32 }, "geometry": { "type": "Point", "coordinates": [ -6.262003, 53.338757 ] } },
{ "type": "Feature", "properties": { "station_id": 53, "name": "NEWMAN HOUSE", "capacity": 40 }, "geometry": { "type": "Point", "coordinates": [ -6.26059, 53.33713 ] } },
{ "type": "Feature", "properties": { "station_id": 54, "name": "CLONMEL STREET", "capacity": 33 }, "geometry": { "type": "Point", "coordinates": [ -6.26298, 53.33602 ] } },
{ "type": "Feature", "properties": { "station_id": 55, "name": "HATCH STREET", "capacity": 36 }, "geometry": { "type": "Point", "coordinates": [ -6.260714, 53.33403 ] } },
{ "type": "Feature", "properties": { "station_id": 56, "name": "MOUNT STREET LOWER", "capacity": 40 }, "geometry": { "type": "Point", "coordinates": [ -6.24153, 53.33796 ] } },
{ "type": "Feature", "properties": { "station_id": 57, "name": "GRATTAN STREET", "capacity": 23 }, "geometry": { "type": "Point", "coordinates": [ -6.243778, 53.33963 ] } },
{ "type": "Feature", "properties": { "station_id": 58, "name": "SIR PATRICK DUN'S", "capacity": 40 }, "geometry": { "type": "Point", "coordinates": [ -6.240642, 53.33922 ] } },
{ "type": "Feature", "properties": { "station_id": 59, "name": "DENMARK STREET GREAT", "capacity": 20 }, "geometry": { "type": "Point", "coordinates": [ -6.261397, 53.35561 ] } },
{ "type": "Feature", "properties": { "station_id": 60, "name": "NORTH CIRCULAR ROAD", "capacity": 30 }, "geometry": { "type": "Point", "coordinates": [ -6.260348, 53.359623 ] } },
{ "type": "Feature", "properties": { "station_id": 61, "name": "HARDWICKE PLACE", "capacity": 25 }, "geometry": { "type": "Point", "coordinates": [ -6.263232, 53.357044 ] } },
{ "type": "Feature", "properties": { "station_id": 62, "name": "LIME STREET", "capacity": 40 }, "geometry": { "type": "Point", "coordinates": [ -6.243576, 53.346027 ] } },
{ "type": "Feature", "properties": { "station_id": 63, "name": "FENIAN STREET", "capacity": 35 }, "geometry": { "type": "Point", "coordinates": [ -6.24672, 53.341427 ] } },
{ "type": "Feature", "properties": { "station_id": 64, "name": "SANDWITH STREET", "capacity": 40 }, "geometry": { "type": "Point", "coordinates": [ -6.247163, 53.345203 ] } },
{ "type": "Feature", "properties": { "station_id": 65, "name": "CONVENTION CENTRE", "capacity": 40 }, "geometry": { "type": "Point", "coordinates": [ -6.238523, 53.34744 ] } },
{ "type": "Feature", "properties": { "station_id": 66, "name": "NEW CENTRAL BANK", "capacity": 40 }, "geometry": { "type": "Point", "coordinates": [ -6.234749, 53.347122 ] } },
{ "type": "Feature", "properties": { "station_id": 67, "name": "THE POINT", "capacity": 40 }, "geometry": { "type": "Point", "coordinates": [ -6.230852, 53.346867 ] } },
{ "type": "Feature", "properties": { "station_id": 68, "name": "HANOVER QUAY", "capacity": 40 }, "geometry": { "type": "Point", "coordinates": [ -6.237153, 53.344116 ] } },
{ "type": "Feature", "properties": { "station_id": 69, "name": "GRAND CANAL DOCK", "capacity": 40 }, "geometry": { "type": "Point", "coordinates": [ -6.238695, 53.342636 ] } },
{ "type": "Feature", "properties": { "station_id": 70, "name": "BARROW STREET", "capacity": 21 }, "geometry": { "type": "Point", "coordinates": [ -6.236779, 53.33831 ] } },
{ "type": "Feature", "properties": { "station_id": 71, "name": "KEVIN STREET", "capacity": 40 }, "geometry": { "type": "Point", "coordinates": [ -6.2676992, 53.337757 ] } },
{ "type": "Feature", "properties": { "station_id": 72, "name": "JOHN STREET WEST", "capacity": 31 }, "geometry": { "type": "Point", "coordinates": [ -6.277167, 53.343105 ] } },
{ "type": "Feature", "properties": { "station_id": 73, "name": "FRANCIS STREET", "capacity": 30 }, "geometry": { "type": "Point", "coordinates": [ -6.275233, 53.34208 ] } },
{ "type": "Feature", "properties": { "station_id": 74, "name": "OLIVER BOND STREET", "capacity": 30 }, "geometry": { "type": "Point", "coordinates": [ -6.280531, 53.34389 ] } },
{ "type": "Feature", "properties": { "station_id": 75, "name": "JAMES STREET", "capacity": 40 }, "geometry": { "type": "Point", "coordinates": [ -6.287409, 53.343456 ] } },
{ "type": "Feature", "properties": { "station_id": 76, "name": "MARKET STREET SOUTH", "capacity": 38 }, "geometry": { "type": "Point", "coordinates": [ -6.287661, 53.342297 ] } },
{ "type": "Feature", "properties": { "station_id": 77, "name": "WOLFE TONE STREET", "capacity": 29 }, "geometry": { "type": "Point", "coordinates": [ -6.267459, 53.348873 ] } },
{ "type": "Feature", "properties": { "station_id": 78, "name": "MATER HOSPITAL", "capacity": 40 }, "geometry": { "type": "Point", "coordinates": [ -6.264828, 53.359966 ] } },
{ "type": "Feature", "properties": { "station_id": 79, "name": "ECCLES STREET EAST", "capacity": 27 }, "geometry": { "type": "Point", "coordinates": [ -6.265601, 53.358116 ] } },
{ "type": "Feature", "properties": { "station_id": 80, "name": "ST JAMES HOSPITAL (LUAS)", "capacity": 40 }, "geometry": { "type": "Point", "coordinates": [ -6.292951, 53.34136 ] } },
{ "type": "Feature", "properties": { "station_id": 82, "name": "MOUNT BROWN", "capacity": 22 }, "geometry": { "type": "Point", "coordinates": [ -6.29719, 53.341644 ] } },
{ "type": "Feature", "properties": { "station_id": 83, "name": "EMMET ROAD", "capacity": 40 }, "geometry": { "type": "Point", "coordinates": [ -6.308191, 53.340714 ] } },
{ "type": "Feature", "properties": { "station_id": 84, "name": "BROOKFIELD ROAD", "capacity": 30 }, "geometry": { "type": "Point", "coordinates": [ -6.300217, 53.339005 ] } },
{ "type": "Feature", "properties": { "station_id": 85, "name": "ROTHE ABBEY", "capacity": 35 }, "geometry": { "type": "Point", "coordinates": [ -6.30395, 53.338776 ] } },
{ "type": "Feature", "properties": { "station_id": 86, "name": "PARKGATE STREET", "capacity": 38 }, "geometry": { "type": "Point", "coordinates": [ -6.291804, 53.347973 ] } },
{ "type": "Feature", "properties": { "station_id": 87, "name": "COLLINS BARRACKS MUSEUM", "capacity": 38 }, "geometry": { "type": "Point", "coordinates": [ -6.28525, 53.347477 ] } },
{ "type": "Feature", "properties": { "station_id": 88, "name": "BLACKHALL PLACE", "capacity": 30 }, "geometry": { "type": "Point", "coordinates": [ -6.281637, 53.3488 ] } },
{ "type": "Feature", "properties": { "station_id": 89, "name": "FITZWILLIAM SQUARE EAST", "capacity": 40 }, "geometry": { "type": "Point", "coordinates": [ -6.2509, 53.335213 ] } },
{ "type": "Feature", "properties": { "station_id": 90, "name": "BENSON STREET", "capacity": 40 }, "geometry": { "type": "Point", "coordinates": [ -6.233451, 53.344154 ] } },
{ "type": "Feature", "properties": { "station_id": 91, "name": "SOUTH DOCK ROAD", "capacity": 30 }, "geometry": { "type": "Point", "coordinates": [ -6.231291, 53.34183 ] } },
{ "type": "Feature", "properties": { "station_id": 92, "name": "HEUSTON BRIDGE (NORTH)", "capacity": 40 }, "geometry": { "type": "Point", "coordinates": [ -6.292432, 53.3478 ] } },
{ "type": "Feature", "properties": { "station_id": 93, "name": "HEUSTON STATION (CENTRAL)", "capacity": 40 }, "geometry": { "type": "Point", "coordinates": [ -6.296924, 53.346603 ] } },
{ "type": "Feature", "properties": { "station_id": 94, "name": "HEUSTON STATION (CAR PARK)", "capacity": 40 }, "geometry": { "type": "Point", "coordinates": [ -6.297804, 53.346985 ] } },
{ "type": "Feature", "properties": { "station_id": 95, "name": "ROYAL HOSPITAL", "capacity": 40 }, "geometry": { "type": "Point", "coordinates": [ -6.29706, 53.3439 ] } },
{ "type": "Feature", "properties": { "station_id": 96, "name": "KILMAINHAM LANE", "capacity": 30 }, "geometry": { "type": "Point", "coordinates": [ -6.305085, 53.341805 ] } },
{ "type": "Feature", "properties": { "station_id": 97, "name": "KILMAINHAM GAOL", "capacity": 40 }, "geometry": { "type": "Point", "coordinates": [ -6.310015, 53.342113 ] } },
{ "type": "Feature", "properties": { "station_id": 98, "name": "FREDERICK STREET SOUTH", "capacity": 40 }, "geometry": { "type": "Point", "coordinates": [ -6.256853, 53.341515 ] } },
{ "type": "Feature", "properties": { "station_id": 99, "name": "CITY QUAY", "capacity": 30 }, "geometry": { "type": "Point", "coordinates": [ -6.246154, 53.346638 ] } },
{ "type": "Feature", "properties": { "station_id": 100, "name": "HEUSTON BRIDGE (SOUTH)", "capacity": 25 }, "geometry": { "type": "Point", "coordinates": [ -6.292041, 53.347107 ] } },
{ "type": "Feature", "properties": { "station_id": 101, "name": "KING STREET NORTH", "capacity": 30 }, "geometry": { "type": "Point", "coordinates": [ -6.273507, 53.350292 ] } },
{ "type": "Feature", "properties": { "station_id": 102, "name": "WESTERN WAY", "capacity": 40 }, "geometry": { "type": "Point", "coordinates": [ -6.269425, 53.35493 ] } },
{ "type": "Feature", "properties": { "station_id": 103, "name": "GRANGEGORMAN LOWER (SOUTH)", "capacity": 40 }, "geometry": { "type": "Point", "coordinates": [ -6.278681, 53.354664 ] } },
{ "type": "Feature", "properties": { "station_id": 104, "name": "GRANGEGORMAN LOWER (CENTRAL)", "capacity": 40 }, "geometry": { "type": "Point", "coordinates": [ -6.278424, 53.35517 ] } },
{ "type": "Feature", "properties": { "station_id": 105, "name": "GRANGEGORMAN LOWER (NORTH)", "capacity": 36 }, "geometry": { "type": "Point", "coordinates": [ -6.278378, 53.355953 ] } },
{ "type": "Feature", "properties": { "station_id": 106, "name": "RATHDOWN ROAD", "capacity": 40 }, "geometry": { "type": "Point", "coordinates": [ -6.280337, 53.35893 ] } },
{ "type": "Feature", "properties": { "station_id": 107, "name": "CHARLEVILLE ROAD", "capacity": 40 }, "geometry": { "type": "Point", "coordinates": [ -6.281866, 53.359158 ] } },
{ "type": "Feature", "properties": { "station_id": 108, "name": "AVONDALE ROAD", "capacity": 35 }, "geometry": { "type": "Point", "coordinates": [ -6.276142, 53.359406 ] } },
{ "type": "Feature", "properties": { "station_id": 109, "name": "BUCKINGHAM STREET LOWER", "capacity": 29 }, "geometry": { "type": "Point", "coordinates": [ -6.249319, 53.353333 ] } },
{ "type": "Feature", "properties": { "station_id": 110, "name": "PHIBSBOROUGH ROAD", "capacity": 40 }, "geometry": { "type": "Point", "coordinates": [ -6.273717, 53.356308 ] } },
{ "type": "Feature", "properties": { "station_id": 111, "name": "MOUNTJOY SQUARE EAST", "capacity": 40 }, "geometry": { "type": "Point", "coordinates": [ -6.256359, 53.356716 ] } },
{ "type": "Feature", "properties": { "station_id": 112, "name": "NORTH CIRCULAR ROAD (O'CONNELL'S)", "capacity": 30 }, "geometry": { "type": "Point", "coordinates": [ -6.251557, 53.35784 ] } },
{ "type": "Feature", "properties": { "station_id": 113, "name": "MERRION SQUARE SOUTH", "capacity": 40 }, "geometry": { "type": "Point", "coordinates": [ -6.248606, 53.338615 ] } },
{ "type": "Feature", "properties": { "station_id": 114, "name": "WILTON TERRACE (PARK)", "capacity": 40 }, "geometry": { "type": "Point", "coordinates": [ -6.248345, 53.333652 ] } },
{ "type": "Feature", "properties": { "station_id": 115, "name": "KILLARNEY STREET", "capacity": 30 }, "geometry": { "type": "Point", "coordinates": [ -6.247579, 53.354843 ] } },
{ "type": "Feature", "properties": { "station_id": 116, "name": "BROADSTONE", "capacity": 30 }, "geometry": { "type": "Point", "coordinates": [ -6.272314, 53.3547 ] } },
{ "type": "Feature", "properties": { "station_id": 117, "name": "HANOVER QUAY EAST", "capacity": 40 }, "geometry": { "type": "Point", "coordinates": [ -6.231755, 53.343655 ] } }
]
}
