{
"type": "FeatureCollection",
"name": "dublin_bikes_stations_june2026",
"crs": { "type": "name", "properties": { "name": "urn:ogc:def:crs:OGC:1.3:CRS84" } },
"features": [
{ "type": "Feature", "properties": { "station_id": 1, "name": "CLARENDON ROW", "address": "Clarendon Row", "lat": 53.340927, "lon": -6.262501, "capacity": 31 }, "geometry": { "type": "Point", "coordinates": [ -6.262501, 53.340927 ] } },
{ "type": "Feature", "properties": { "station_id": 2, "name": "BLESSINGTON STREET", "address": "Blessington Street", "lat": 53.35677, "lon": -6.26814, "capacity": 20 }, "geometry": { "type": "Point", "coordinates": [ -6.26814, 53.35677 ] } },
{ "type": "Feature", "properties": { "station_id": 3, "name": "BOLTON STREET", "address": "Bolton Street", "lat": 53.35118, "lon": -6.269859, "capacity": 20 }, "geometry": { "type": "Point", "coordinates": [ -6.269859, 53.35118 ] } },
{ "type": "Feature", "properties": { "station_id": 4, "name": "GREEK STREET", "address": "Greek Street", "lat": 53.346874, "lon": -6.272976, "capacity": 20 }, "geometry": { "type": "Point", "coordinates": [ -6.272976, 53.346874 ] } },
{ "type": "Feature", "properties": { "station_id": 5, "name": "CHARLEMONT PLACE", "address": "Charlemont Street", "lat": 53.330704, "lon": -6.260004, "capacity": 40 }, "geometry": { "type": "Point", "coordinates": [ -6.260004, 53.330704 ] } },
{ "type": "Feature", "properties": { "station_id": 6, "name": "CHRISTCHURCH PLACE", "address": "Christchurch Place", "lat": 53.34337, "lon": -6.27012, "capacity": 20 }, "geometry": { "type": "Point", "coordinates": [ -6.27012, 53.34337 ] } },
{ "type": "Feature", "properties": { "station_id": 7, "name": "HIGH STREET", "address": "High Street", "lat": 53.34342, "lon": -6.2744136, "capacity": 29 }, "geometry": { "type": "Point", "coordinates": [ -6.2744136, 53.34342 ] } },
{ "type": "Feature", "properties": { "station_id": 8, "name": "CUSTOM HOUSE QUAY", "address": "Custom House Quay", "lat": 53.347885, "lon": -6.248048, "capacity": 30 }, "geometry": { "type": "Point", "coordinates": [ -6.248048, 53.347885 ] } },
{ "type": "Feature", "properties": { "station_id": 9, "name": "EXCHEQUER STREET", "address": "Exchequer Street", "lat": 53.343033, "lon": -6.263578, "capacity": 24 }, "geometry": { "type": "Point", "coordinates": [ -6.263578, 53.343033 ] } },
{ "type": "Feature", "properties": { "station_id": 10, "name": "DAME STREET", "address": "Dame Street", "lat": 53.344006, "lon": -6.266802, "capacity": 16 }, "geometry": { "type": "Point", "coordinates": [ -6.266802, 53.344006 ] } },
{ "type": "Feature", "properties": { "station_id": 11, "name": "EARLSFORT TERRACE", "address": "Earlsfort Terrace", "lat": 53.334293, "lon": -6.258503, "capacity": 30 }, "geometry": { "type": "Point", "coordinates": [ -6.258503, 53.334293 ] } },
{ "type": "Feature", "properties": { "station_id": 12, "name": "ECCLES STREET", "address": "Eccles Street", "lat": 53.359245, "lon": -6.269779, "capacity": 20 }, "geometry": { "type": "Point", "coordinates": [ -6.269779, 53.359245 ] } },
{ "type": "Feature", "properties": { "station_id": 13, "name": "FITZWILLIAM SQUARE WEST", "address": "Fitzwilliam Square West", "lat": 53.336075, "lon": -6.252825, "capacity": 30 }, "geometry": { "type": "Point", "coordinates": [ -6.252825, 53.336075 ] } },
{ "type": "Feature", "properties": { "station_id": 14, "name": "FOWNES STREET UPPER", "address": "Fownes Street Upper", "lat": 53.344604, "lon": -6.263371, "capacity": 30 }, "geometry": { "type": "Point", "coordinates": [ -6.263371, 53.344604 ] } },
{ "type": "Feature", "properties": { "station_id": 15, "name": "HARDWICKE STREET", "address": "Hardwicke Street", "lat": 53.355473, "lon": -6.264423, "capacity": 16 }, "geometry": { "type": "Point", "coordinates": [ -6.264423, 53.355473 ] } },
{ "type": "Feature", "properties": { "station_id": 16, "name": "GEORGES QUAY", "address": "Georges Quay", "lat": 53.347507, "lon": -6.252192, "capacity": 20 }, "geometry": { "type": "Point", "coordinates": [ -6.252192, 53.347507 ] } },
{ "type": "Feature", "properties": { "station_id": 17, "name": "GOLDEN LANE", "address": "Golden Lane", "lat": 53.3408, "lon": -6.267732, "capacity": 20 }, "geometry": { "type": "Point", "coordinates": [ -6.267732, 53.3408 ] } },
{ "type": "Feature", "properties": { "station_id": 18, "name": "GRANTHAM STREET", "address": "Grantham Street", "lat": 53.334126, "lon": -6.2656674, "capacity": 30 }, "geometry": { "type": "Point", "coordinates": [ -6.2656674, 53.334126 ] } },
{ "type": "Feature", "properties": { "station_id": 19, "name": "HERBERT PLACE", "address": "Herbert Place", "lat": 53.3347, "lon": -6.245139, "capacity": 30 }, "geometry": { "type": "Point", "coordinates": [ -6.245139, 53.3347 ] } },
{ "type": "Feature", "properties": { "station_id": 20, "name": "JAMES STREET EAST", "address": "James Street East", "lat": 53.336487, "lon": -6.248174, "capacity": 30 }, "geometry": { "type": "Point", "coordinates": [ -6.248174, 53.336487 ] } },
{ "type": "Feature", "properties": { "station_id": 21, "name": "LEINSTER STREET SOUTH", "address": "Leinster Street South", "lat": 53.342144, "lon": -6.2541847, "capacity": 30 }, "geometry": { "type": "Point", "coordinates": [ -6.2541847, 53.342144 ] } },
{ "type": "Feature", "properties": { "station_id": 22, "name": "TOWNSEND STREET", "address": "Townsend Street", "lat": 53.34592, "lon": -6.254614, "capacity": 20 }, "geometry": { "type": "Point", "coordinates": [ -6.254614, 53.34592 ] } },
{ "type": "Feature", "properties": { "station_id": 23, "name": "CUSTOM HOUSE", "address": "Custom House", "lat": 53.34828, "lon": -6.254358, "capacity": 30 }, "geometry": { "type": "Point", "coordinates": [ -6.254358, 53.34828 ] } },
{ "type": "Feature", "properties": { "station_id": 24, "name": "CATHAL BRUGHA STREET", "address": "Cathal Brugha Street", "lat": 53.352215, "lon": -6.260328, "capacity": 20 }, "geometry": { "type": "Point", "coordinates": [ -6.260328, 53.352215 ] } },
{ "type": "Feature", "properties": { "station_id": 25, "name": "MERRION SQUARE EAST", "address": "Merrion Square East", "lat": 53.33907, "lon": -6.247006, "capacity": 30 }, "geometry": { "type": "Point", "coordinates": [ -6.247006, 53.33907 ] } },
{ "type": "Feature", "properties": { "station_id": 26, "name": "MERRION SQUARE WEST", "address": "Merrion Square West", "lat": 53.34007, "lon": -6.251716, "capacity": 20 }, "geometry": { "type": "Point", "coordinates": [ -6.251716, 53.34007 ] } },
{ "type": "Feature", "properties": { "station_id": 27, "name": "MOLESWORTH STREET", "address": "Molesworth Street", "lat": 53.341236, "lon": -6.2575936, "capacity": 20 }, "geometry": { "type": "Point", "coordinates": [ -6.2575936, 53.341236 ] } },
{ "type": "Feature", "properties": { "station_id": 28, "name": "MOUNTJOY SQUARE WEST", "address": "Mountjoy Square West", "lat": 53.3563, "lon": -6.258586, "capacity": 30 }, "geometry": { "type": "Point", "coordinates": [ -6.258586, 53.3563 ] } },
{ "type": "Feature", "properties": { "station_id": 29, "name": "ORMOND QUAY UPPER", "address": "Ormond Quay Upper", "lat": 53.346107, "lon": -6.268345, "capacity": 29 }, "geometry": { "type": "Point", "coordinates": [ -6.268345, 53.346107 ] } },
{ "type": "Feature", "properties": { "station_id": 30, "name": "PARNELL SQUARE NORTH", "address": "Parnell Square North", "lat": 53.35374, "lon": -6.265301, "capacity": 20 }, "geometry": { "type": "Point", "coordinates": [ -6.265301, 53.35374 ] } },
{ "type": "Feature", "properties": { "station_id": 31, "name": "PARNELL STREET", "address": "Parnell Street", "lat": 53.35093, "lon": -6.265125, "capacity": 20 }, "geometry": { "type": "Point", "coordinates": [ -6.265125, 53.35093 ] } },
{ "type": "Feature", "properties": { "station_id": 32, "name": "PEARSE STREET", "address": "Pearse Street", "lat": 53.344303, "lon": -6.2504272, "capacity": 30 }, "geometry": { "type": "Point", "coordinates": [ -6.2504272, 53.344303 ] } },
{ "type": "Feature", "properties": { "station_id": 33, "name": "PRINCES STREET / O'CONNELL STREET", "address": "Princes Street / O'Connell Street", "lat": 53.349014, "lon": -6.260311, "capacity": 23 }, "geometry": { "type": "Point", "coordinates": [ -6.260311, 53.349014 ] } },
{ "type": "Feature", "properties": { "station_id": 34, "name": "LENNOX STREET", "address": "Lennox Street", "lat": 53.331383, "lon": -6.265023, "capacity": 40 }, "geometry": { "type": "Point", "coordinates": [ -6.265023, 53.331383 ] } },
{ "type": "Feature", "properties": { "station_id": 35, "name": "SMITHFIELD", "address": "Smithfield", "lat": 53.34769, "lon": -6.278214, "capacity": 30 }, "geometry": { "type": "Point", "coordinates": [ -6.278214, 53.34769 ] } },
{ "type": "Feature", "properties": { "station_id": 36, "name": "ST. STEPHEN'S GREEN EAST", "address": "St. Stephen's Green East", "lat": 53.337635, "lon": -6.256218, "capacity": 40 }, "geometry": { "type": "Point", "coordinates": [ -6.256218, 53.337635 ] } },
{ "type": "Feature", "properties": { "station_id": 37, "name": "ST. STEPHEN'S GREEN SOUTH", "address": "St. Stephen's Green South", "lat": 53.337494, "lon": -6.26199, "capacity": 30 }, "geometry": { "type": "Point", "coordinates": [ -6.26199, 53.337494 ] } },
{ "type": "Feature", "properties": { "station_id": 38, "name": "TALBOT STREET", "address": "Talbot Street", "lat": 53.350998, "lon": -6.252661, "capacity": 40 }, "geometry": { "type": "Point", "coordinates": [ -6.252661, 53.350998 ] } },
{ "type": "Feature", "properties": { "station_id": 39, "name": "WILTON TERRACE", "address": "Wilton Terrace", "lat": 53.332382, "lon": -6.252717, "capacity": 20 }, "geometry": { "type": "Point", "coordinates": [ -6.252717, 53.332382 ] } },
{ "type": "Feature", "properties": { "station_id": 40, "name": "JERVIS STREET", "address": "Jervis Street", "lat": 53.3483, "lon": -6.266651, "capacity": 21 }, "geometry": { "type": "Point", "coordinates": [ -6.266651, 53.3483 ] } },
{ "type": "Feature", "properties": { "station_id": 41, "name": "HARCOURT TERRACE", "address": "Harcourt Terrace", "lat": 53.332417, "lon": -6.2578697, "capacity": 20 }, "geometry": { "type": "Point", "coordinates": [ -6.2578697, 53.332417 ] } },
{ "type": "Feature", "properties": { "station_id": 42, "name": "SMITHFIELD NORTH", "address": "Smithfield North", "lat": 53.349564, "lon": -6.2781982, "capacity": 30 }, "geometry": { "type": "Point", "coordinates": [ -6.2781982, 53.349564 ] } },
{ "type": "Feature", "properties": { "station_id": 43, "name": "PORTOBELLO ROAD", "address": "Portobello Road", "lat": 53.33009, "lon": -6.268044, "capacity": 30 }, "geometry": { "type": "Point", "coordinates": [ -6.268044, 53.33009 ] } },
{ "type": "Feature", "properties": { "station_id": 44, "name": "UPPER SHERRARD STREET", "address": "Upper Sherrard Street", "lat": 53.358593, "lon": -6.2602983, "capacity": 30 }, "geometry": { "type": "Point", "coordinates": [ -6.2602983, 53.358593 ] } },
{ "type": "Feature", "properties": { "station_id": 45, "name": "DEVERELL PLACE", "address": "Deverell Place", "lat": 53.351463, "lon": -6.255265, "capacity": 30 }, "geometry": { "type": "Point", "coordinates": [ -6.255265, 53.351463 ] } },
{ "type": "Feature", "properties": { "station_id": 47, "name": "HERBERT STREET", "address": "Herbert Street", "lat": 53.335743, "lon": -6.24551, "capacity": 40 }, "geometry": { "type": "Point", "coordinates": [ -6.24551, 53.335743 ] } },
{ "type": "Feature", "properties": { "station_id": 48, "name": "EXCISE WALK", "address": "Excise Walk", "lat": 53.34778, "lon": -6.244239, "capacity": 40 }, "geometry": { "type": "Point", "coordinates": [ -6.244239, 53.34778 ] } },
{ "type": "Feature", "properties": { "station_id": 49, "name": "GUILD STREET", "address": "Guild Street", "lat": 53.34793, "lon": -6.240928, "capacity": 40 }, "geometry": { "type": "Point", "coordinates": [ -6.240928, 53.34793 ] } },
{ "type": "Feature", "properties": { "station_id": 50, "name": "GEORGES LANE", "address": "George's Lane", "lat": 53.35023, "lon": -6.279696, "capacity": 40 }, "geometry": { "type": "Point", "coordinates": [ -6.279696, 53.35023 ] } },
{ "type": "Feature", "properties": { "station_id": 51, "name": "YORK STREET WEST", "address": "York Street West", "lat": 53.339333, "lon": -6.264699, "capacity": 40 }, "geometry": { "type": "Point", "coordinates": [ -6.264699, 53.339333 ] } },
{ "type": "Feature", "properties": { "station_id": 52, "name": "YORK STREET EAST", "address": "York Street East", "lat": 53.338757, "lon": -6.262003, "capacity": 32 }, "geometry": { "type": "Point", "coordinates": [ -6.262003, 53.338757 ] } },
{ "type": "Feature", "properties": { "station_id": 53, "name": "NEWMAN HOUSE", "address": "Newman House", "lat": 53.33713, "lon": -6.26059, "capacity": 40 }, "geometry": { "type": "Point", "coordinates": [ -6.26059, 53.33713 ] } },
{ "type": "Feature", "properties": { "station_id": 54, "name": "CLONMEL STREET", "address": "Clonmel Street", "lat": 53.33602, "lon": -6.26298, "capacity": 33 }, "geometry": { "type": "Point", "coordinates": [ -6.26298, 53.33602 ] } },
{ "type": "Feature", "properties": { "station_id": 55, "name": "HATCH STREET", "address": "Hatch Street", "lat": 53.33403, "lon": -6.260714, "capacity": 36 }, "geometry": { "type": "Point", "coordinates": [ -6.260714, 53.33403 ] } },
{ "type": "Feature", "properties": { "station_id": 56, "name": "MOUNT STREET LOWER", "address": "Mount Street Lower", "lat": 53.337986, "lon": -6.241539, "capacity": 40 }, "geometry": { "type": "Point", "coordinates": [ -6.241539, 53.337986 ] } },
{ "type": "Feature", "properties": { "station_id": 57, "name": "GRATTAN STREET", "address": "Grattan Street", "lat": 53.33963, "lon": -6.243778, "capacity": 23 }, "geometry": { "type": "Point", "coordinates": [ -6.243778, 53.33963 ] } },
{ "type": "Feature", "properties": { "station_id": 58, "name": "SIR PATRICK DUN'S", "address": "Sir Patrick's Dun", "lat": 53.33922, "lon": -6.240642, "capacity": 40 }, "geometry": { "type": "Point", "coordinates": [ -6.240642, 53.33922 ] } },
{ "type": "Feature", "properties": { "station_id": 59, "name": "DENMARK STREET GREAT", "address": "Denmark Street Great", "lat": 53.35561, "lon": -6.261397, "capacity": 20 }, "geometry": { "type": "Point", "coordinates": [ -6.261397, 53.35561 ] } },
{ "type": "Feature", "properties": { "station_id": 60, "name": "NORTH CIRCULAR ROAD", "address": "North Circular Road", "lat": 53.359623, "lon": -6.260348, "capacity": 30 }, "geometry": { "type": "Point", "coordinates": [ -6.260348, 53.359623 ] } },
{ "type": "Feature", "properties": { "station_id": 61, "name": "HARDWICKE PLACE", "address": "Hardwicke Place", "lat": 53.357044, "lon": -6.263232, "capacity": 25 }, "geometry": { "type": "Point", "coordinates": [ -6.263232, 53.357044 ] } },
{ "type": "Feature", "properties": { "station_id": 62, "name": "LIME STREET", "address": "Lime Street", "lat": 53.346027, "lon": -6.243576, "capacity": 40 }, "geometry": { "type": "Point", "coordinates": [ -6.243576, 53.346027 ] } },
{ "type": "Feature", "properties": { "station_id": 63, "name": "FENIAN STREET", "address": "Fenian Street", "lat": 53.341427, "lon": -6.24672, "capacity": 35 }, "geometry": { "type": "Point", "coordinates": [ -6.24672, 53.341427 ] } },
{ "type": "Feature", "properties": { "station_id": 64, "name": "SANDWITH STREET", "address": "Sandwith Street", "lat": 53.345203, "lon": -6.247163, "capacity": 40 }, "geometry": { "type": "Point", "coordinates": [ -6.247163, 53.345203 ] } },
{ "type": "Feature", "properties": { "station_id": 65, "name": "CONVENTION CENTRE", "address": "Convention Centre", "lat": 53.34744, "lon": -6.238523, "capacity": 40 }, "geometry": { "type": "Point", "coordinates": [ -6.238523, 53.34744 ] } },
{ "type": "Feature", "properties": { "station_id": 66, "name": "NEW CENTRAL BANK", "address": "New Central Bank", "lat": 53.347122, "lon": -6.234749, "capacity": 40 }, "geometry": { "type": "Point", "coordinates": [ -6.234749, 53.347122 ] } },
{ "type": "Feature", "properties": { "station_id": 67, "name": "THE POINT", "address": "The Point", "lat": 53.346867, "lon": -6.230852, "capacity": 40 }, "geometry": { "type": "Point", "coordinates": [ -6.230852, 53.346867 ] } },
{ "type": "Feature", "properties": { "station_id": 68, "name": "HANOVER QUAY", "address": "Hanover Quay", "lat": 53.344116, "lon": -6.237153, "capacity": 40 }, "geometry": { "type": "Point", "coordinates": [ -6.237153, 53.344116 ] } },
{ "type": "Feature", "properties": { "station_id": 69, "name": "GRAND CANAL DOCK", "address": "Grand Canal Dock", "lat": 53.342636, "lon": -6.238695, "capacity": 40 }, "geometry": { "type": "Point", "coordinates": [ -6.238695, 53.342636 ] } },
{ "type": "Feature", "properties": { "station_id": 70, "name": "BARROW STREET", "address": "Barrow Street", "lat": 53.33831, "lon": -6.236779, "capacity": 21 }, "geometry": { "type": "Point", "coordinates": [ -6.236779, 53.33831 ] } },
{ "type": "Feature", "properties": { "station_id": 71, "name": "KEVIN STREET", "address": "Kevin Street", "lat": 53.337757, "lon": -6.2676992, "capacity": 40 }, "geometry": { "type": "Point", "coordinates": [ -6.2676992, 53.337757 ] } },
{ "type": "Feature", "properties": { "station_id": 72, "name": "JOHN STREET WEST", "address": "John Street West", "lat": 53.343105, "lon": -6.277167, "capacity": 31 }, "geometry": { "type": "Point", "coordinates": [ -6.277167, 53.343105 ] } },
{ "type": "Feature", "properties": { "station_id": 73, "name": "FRANCIS STREET", "address": "Francis Street", "lat": 53.34208, "lon": -6.275233, "capacity": 30 }, "geometry": { "type": "Point", "coordinates": [ -6.275233, 53.34208 ] } },
{ "type": "Feature", "properties": { "station_id": 74, "name": "OLIVER BOND STREET", "address": "Oliver Bond Street", "lat": 53.34389, "lon": -6.280531, "capacity": 30 }, "geometry": { "type": "Point", "coordinates": [ -6.280531, 53.34389 ] } },
{ "type": "Feature", "properties": { "station_id": 75, "name": "JAMES STREET", "address": "James Street", "lat": 53.343456, "lon": -6.287409, "capacity": 40 }, "geometry": { "type": "Point", "coordinates": [ -6.287409, 53.343456 ] } },
{ "type": "Feature", "properties": { "station_id": 76, "name": "MARKET STREET SOUTH", "address": "Market Street South", "lat": 53.342297, "lon": -6.287661, "capacity": 38 }, "geometry": { "type": "Point", "coordinates": [ -6.287661, 53.342297 ] } },
{ "type": "Feature", "properties": { "station_id": 77, "name": "WOLFE TONE STREET", "address": "Wolfe Tone Street", "lat": 53.348873, "lon": -6.267459, "capacity": 29 }, "geometry": { "type": "Point", "coordinates": [ -6.267459, 53.348873 ] } },
{ "type": "Feature", "properties": { "station_id": 78, "name": "MATER HOSPITAL", "address": "Mater Hospital", "lat": 53.359966, "lon": -6.264828, "capacity": 40 }, "geometry": { "type": "Point", "coordinates": [ -6.264828, 53.359966 ] } },
{ "type": "Feature", "properties": { "station_id": 79, "name": "ECCLES STREET EAST", "address": "Eccles Street East", "lat": 53.358116, "lon": -6.265601, "capacity": 27 }, "geometry": { "type": "Point", "coordinates": [ -6.265601, 53.358116 ] } },
{ "type": "Feature", "properties": { "station_id": 80, "name": "ST JAMES HOSPITAL (LUAS)", "address": "St James Hospital (Luas)", "lat": 53.34136, "lon": -6.292951, "capacity": 40 }, "geometry": { "type": "Point", "coordinates": [ -6.292951, 53.34136 ] } },
{ "type": "Feature", "properties": { "station_id": 82, "name": "MOUNT BROWN", "address": "Mount Brown", "lat": 53.341644, "lon": -6.29719, "capacity": 22 }, "geometry": { "type": "Point", "coordinates": [ -6.29719, 53.341644 ] } },
{ "type": "Feature", "properties": { "station_id": 83, "name": "EMMET ROAD", "address": "Emmet Road", "lat": 53.340714, "lon": -6.308191, "capacity": 40 }, "geometry": { "type": "Point", "coordinates": [ -6.308191, 53.340714 ] } },
{ "type": "Feature", "properties": { "station_id": 84, "name": "BROOKFIELD ROAD", "address": "Brookfield Road", "lat": 53.339005, "lon": -6.300217, "capacity": 30 }, "geometry": { "type": "Point", "coordinates": [ -6.300217, 53.339005 ] } },
{ "type": "Feature", "properties": { "station_id": 85, "name": "ROTHE ABBEY", "address": "Rothe Abbey", "lat": 53.338776, "lon": -6.30395, "capacity": 35 }, "geometry": { "type": "Point", "coordinates": [ -6.30395, 53.338776 ] } },
{ "type": "Feature", "properties": { "station_id": 86, "name": "PARKGATE STREET", "address": "Parkgate Street", "lat": 53.347973, "lon": -6.291804, "capacity": 38 }, "geometry": { "type": "Point", "coordinates": [ -6.291804, 53.347973 ] } },
{ "type": "Feature", "properties": { "station_id": 87, "name": "COLLINS BARRACKS MUSEUM", "address": "Collins Barracks Museum", "lat": 53.347477, "lon": -6.28525, "capacity": 38 }, "geometry": { "type": "Point", "coordinates": [ -6.28525, 53.347477 ] } },
{ "type": "Feature", "properties": { "station_id": 88, "name": "BLACKHALL PLACE", "address": "Blackhall Place", "lat": 53.3488, "lon": -6.281637, "capacity": 30 }, "geometry": { "type": "Point", "coordinates": [ -6.281637, 53.3488 ] } },
{ "type": "Feature", "properties": { "station_id": 89, "name": "FITZWILLIAM SQUARE EAST", "address": "Fitzwilliam Square East", "lat": 53.335213, "lon": -6.2509, "capacity": 40 }, "geometry": { "type": "Point", "coordinates": [ -6.2509, 53.335213 ] } },
{ "type": "Feature", "properties": { "station_id": 90, "name": "BENSON STREET", "address": "Benson Street", "lat": 53.344154, "lon": -6.233451, "capacity": 40 }, "geometry": { "type": "Point", "coordinates": [ -6.233451, 53.344154 ] } },
{ "type": "Feature", "properties": { "station_id": 91, "name": "SOUTH DOCK ROAD", "address": "South Dock Road", "lat": 53.34183, "lon": -6.231291, "capacity": 30 }, "geometry": { "type": "Point", "coordinates": [ -6.231291, 53.34183 ] } },
{ "type": "Feature", "properties": { "station_id": 92, "name": "HEUSTON BRIDGE (NORTH)", "address": "Heuston Bridge (North)", "lat": 53.3478, "lon": -6.292432, "capacity": 40 }, "geometry": { "type": "Point", "coordinates": [ -6.292432, 53.3478 ] } },
{ "type": "Feature", "properties": { "station_id": 93, "name": "HEUSTON STATION (CENTRAL)", "address": "Heuston Station (Central)", "lat": 53.346603, "lon": -6.296924, "capacity": 40 }, "geometry": { "type": "Point", "coordinates": [ -6.296924, 53.346603 ] } },
{ "type": "Feature", "properties": { "station_id": 94, "name": "HEUSTON STATION (CAR PARK)", "address": "Heuston Station (Car Park)", "lat": 53.346985, "lon": -6.297804, "capacity": 40 }, "geometry": { "type": "Point", "coordinates": [ -6.297804, 53.346985 ] } },
{ "type": "Feature", "properties": { "station_id": 95, "name": "ROYAL HOSPITAL", "address": "Royal Hospital", "lat": 53.3439, "lon": -6.29706, "capacity": 40 }, "geometry": { "type": "Point", "coordinates": [ -6.29706, 53.3439 ] } },
{ "type": "Feature", "properties": { "station_id": 96, "name": "KILMAINHAM LANE", "address": "Kilmainham Lane", "lat": 53.341805, "lon": -6.305085, "capacity": 30 }, "geometry": { "type": "Point", "coordinates": [ -6.305085, 53.341805 ] } },
{ "type": "Feature", "properties": { "station_id": 97, "name": "KILMAINHAM GAOL", "address": "Kilmainham Gaol", "lat": 53.342113, "lon": -6.310015, "capacity": 40 }, "geometry": { "type": "Point", "coordinates": [ -6.310015, 53.342113 ] } },
{ "type": "Feature", "properties": { "station_id": 98, "name": "FREDERICK STREET SOUTH", "address": "Frederick Street South", "lat": 53.341515, "lon": -6.256853, "capacity": 40 }, "geometry": { "type": "Point", "coordinates": [ -6.256853, 53.341515 ] } },
{ "type": "Feature", "properties": { "station_id": 99, "name": "CITY QUAY", "address": "City Quay", "lat": 53.346638, "lon": -6.246154, "capacity": 30 }, "geometry": { "type": "Point", "coordinates": [ -6.246154, 53.346638 ] } },
{ "type": "Feature", "properties": { "station_id": 100, "name": "HEUSTON BRIDGE (SOUTH)", "address": "Heuston Bridge (South)", "lat": 53.347107, "lon": -6.292041, "capacity": 25 }, "geometry": { "type": "Point", "coordinates": [ -6.292041, 53.347107 ] } },
{ "type": "Feature", "properties": { "station_id": 101, "name": "KING STREET NORTH", "address": "King Street North", "lat": 53.350292, "lon": -6.273507, "capacity": 30 }, "geometry": { "type": "Point", "coordinates": [ -6.273507, 53.350292 ] } },
{ "type": "Feature", "properties": { "station_id": 102, "name": "WESTERN WAY", "address": "Western Way", "lat": 53.35493, "lon": -6.269425, "capacity": 40 }, "geometry": { "type": "Point", "coordinates": [ -6.269425, 53.35493 ] } },
{ "type": "Feature", "properties": { "station_id": 103, "name": "GRANGEGORMAN LOWER (SOUTH)", "address": "Grangegorman Lower (South)", "lat": 53.354664, "lon": -6.278681, "capacity": 40 }, "geometry": { "type": "Point", "coordinates": [ -6.278681, 53.354664 ] } },
{ "type": "Feature", "properties": { "station_id": 104, "name": "GRANGEGORMAN LOWER (CENTRAL)", "address": "Grangegorman Lower (Central)", "lat": 53.35517, "lon": -6.278424, "capacity": 40 }, "geometry": { "type": "Point", "coordinates": [ -6.278424, 53.35517 ] } },
{ "type": "Feature", "properties": { "station_id": 105, "name": "GRANGEGORMAN LOWER (NORTH)", "address": "Grangegorman Lower (North)", "lat": 53.355953, "lon": -6.278378, "capacity": 36 }, "geometry": { "type": "Point", "coordinates": [ -6.278378, 53.355953 ] } },
{ "type": "Feature", "properties": { "station_id": 106, "name": "RATHDOWN ROAD", "address": "Rathdown Road", "lat": 53.35893, "lon": -6.280337, "capacity": 40 }, "geometry": { "type": "Point", "coordinates": [ -6.280337, 53.35893 ] } },
{ "type": "Feature", "properties": { "station_id": 107, "name": "CHARLEVILLE ROAD", "address": "Charleville Road", "lat": 53.359158, "lon": -6.281866, "capacity": 40 }, "geometry": { "type": "Point", "coordinates": [ -6.281866, 53.359158 ] } },
{ "type": "Feature", "properties": { "station_id": 108, "name": "AVONDALE ROAD", "address": "Avondale Road", "lat": 53.359406, "lon": -6.276142, "capacity": 35 }, "geometry": { "type": "Point", "coordinates": [ -6.276142, 53.359406 ] } },
{ "type": "Feature", "properties": { "station_id": 109, "name": "BUCKINGHAM STREET LOWER", "address": "Buckingham Street Lower", "lat": 53.353333, "lon": -6.249319, "capacity": 29 }, "geometry": { "type": "Point", "coordinates": [ -6.249319, 53.353333 ] } },
{ "type": "Feature", "properties": { "station_id": 110, "name": "PHIBSBOROUGH ROAD", "address": "Phibsborough Road", "lat": 53.356308, "lon": -6.273717, "capacity": 40 }, "geometry": { "type": "Point", "coordinates": [ -6.273717, 53.356308 ] } },
{ "type": "Feature", "properties": { "station_id": 111, "name": "MOUNTJOY SQUARE EAST", "address": "Mountjoy Square East", "lat": 53.356716, "lon": -6.256359, "capacity": 40 }, "geometry": { "type": "Point", "coordinates": [ -6.256359, 53.356716 ] } },
{ "type": "Feature", "properties": { "station_id": 112, "name": "NORTH CIRCULAR ROAD (O'CONNELL'S)", "address": "North Circular Road (O'Connell's)", "lat": 53.35784, "lon": -6.251557, "capacity": 30 }, "geometry": { "type": "Point", "coordinates": [ -6.251557, 53.35784 ] } },
{ "type": "Feature", "properties": { "station_id": 113, "name": "MERRION SQUARE SOUTH", "address": "Merrion Square South", "lat": 53.338615, "lon": -6.248606, "capacity": 40 }, "geometry": { "type": "Point", "coordinates": [ -6.248606, 53.338615 ] } },
{ "type": "Feature", "properties": { "station_id": 114, "name": "WILTON TERRACE (PARK)", "address": "Wilton Terrace (Park)", "lat": 53.333652, "lon": -6.248345, "capacity": 40 }, "geometry": { "type": "Point", "coordinates": [ -6.248345, 53.333652 ] } },
{ "type": "Feature", "properties": { "station_id": 115, "name": "KILLARNEY STREET", "address": "Killarney Street", "lat": 53.354843, "lon": -6.247579, "capacity": 30 }, "geometry": { "type": "Point", "coordinates": [ -6.247579, 53.354843 ] } },
{ "type": "Feature", "properties": { "station_id": 116, "name": "BROADSTONE", "address": "Broadstone", "lat": 53.3547, "lon": -6.272314, "capacity": 30 }, "geometry": { "type": "Point", "coordinates": [ -6.272314, 53.3547 ] } },
{ "type": "Feature", "properties": { "station_id": 117, "name": "HANOVER QUAY EAST", "address": "Hanover Quay East", "lat": 53.343655, "lon": -6.231755, "capacity": 40 }, "geometry": { "type": "Point", "coordinates": [ -6.231755, 53.343655 ] } }
]
}
